TROOP-F2                
1 60557U 24149CT  26068.81453008  .00139132  00000+0  10931-2 0  9998
2 60557  97.3621 159.7382 0003464 230.7595 129.3361 15.71081872 87567
STARLINK-11730 [DTC]    
1 64074U 25107L   26068.66670139 -.00006294  00000+0 -45450-4 0  9990
2 64074  43.0006  98.6858 0001869 273.7026 348.0505 15.70909054  5999
